NORAD_CAT_ID,OBJECT_NAME,OBJECT_TYPE,EPOCH,MEAN_MOTION,ECCENTRICITY,INCLINATION,RA_OF_ASC_NODE,ARG_OF_PERICENTER,MEAN_ANOMALY,BSTAR,MEAN_MOTION_DOT,MEAN_MOTION_DDOT,TLE_LINE0,TLE_LINE1,TLE_LINE2,SEMIMAJOR_AXIS,PERIOD,APOGEE,PERIGEE,DECAYED
53842.0,STARLINK-4754,PAYLOAD,2022-12-08 08:00:01,15.2663413,0.0001144,53.2174,224.7873,88.9857,322.5058,-0.047001,-0.01136894,0.0,0 STARLINK-4754,1 53842U 22114AA  22342.33334491 -.01136894  00000-0 -47001-1 0  9992,2 53842  53.2174 224.7873 0001144  88.9857 322.5058 15.26634130 13172,6864.02,94.325,486.67,485.1,0.0
53842.0,STARLINK-4754,PAYLOAD,2022-12-08 14:00:01,15.26032479,0.0001154,53.2166,223.6336,70.5854,275.3521,-0.048345,-0.01162619,0.0,0 STARLINK-4754,1 53842U 22114AA  22342.58334491 -.01162619  00000-0 -48345-1 0  9995,2 53842  53.2166 223.6336 0001154  70.5854 275.3521 15.26032479  1300,6865.824000000001,94.362,488.481,486.897,0.0
53842.0,STARLINK-4754,PAYLOAD,2022-12-08 22:00:01,15.25209873,0.0001279,53.2176,222.0995,62.004,315.7463,-0.049039,-0.0115125,0.0,0 STARLINK-4754,1 53842U 22114AA  22342.91668981 -.01151250  00000-0 -49039-1 0  9996,2 53842  53.2176 222.0995 0001279  62.0040 315.7463 15.25209873  1303,6868.292,94.413,491.036,489.279,0.0
53842.0,STARLINK-4754,PAYLOAD,2022-12-09 06:00:02,15.24378159,0.0001240999999999,53.2161,220.5657,66.42,342.1063,-0.049084,-0.01111283,0.0,0 STARLINK-4754,1 53842U 22114AA  22343.25002315 -.01111283  00000-0 -49084-1 0  9999,2 53842  53.2161 220.5657 0001241  66.4200 342.1063 15.24378159 13317,6870.79,94.465,493.508,491.80300000000005,0.0
53842.0,STARLINK-4754,PAYLOAD,2022-12-09 14:00:01,15.23572045,0.0001369,53.2165,219.0327,70.37100000000002,7.8776,-0.050757,-0.01135622,0.0,0 STARLINK-4754,1 53842U 22114AA  22343.58334491 -.01135622  00000-0 -50757-1 0  9990,2 53842  53.2165 219.0327 0001369  70.3710   7.8776 15.23572045  1300,6873.214,94.515,496.02,494.138,0.0
53842.0,STARLINK-4754,PAYLOAD,2022-12-10 00:00:00,15.22565087,0.0001373,53.2173,217.1227,97.5109,106.5945,-0.053074,-0.01151059,0.0,0 STARLINK-4754,1 53842U 22114AA  22344.00001157 -.01151059  00000-0 -53074-1 0  9995,2 53842  53.2173 217.1227 0001373  97.5109 106.5945 15.22565087 13423,6876.244000000002,94.577,499.05300000000005,497.165,0.0
53842.0,STARLINK-4754,PAYLOAD,2022-12-10 14:00:01,15.21140788,0.0001436,53.2175,214.4492,70.3051,91.4409,-0.055347,-0.0115081,0.0,0 STARLINK-4754,1 53842U 22114AA  22344.58334491 -.01150810  00000-0 -55347-1 0  9997,2 53842  53.2175 214.4492 0001436  70.3051  91.4409 15.21140788  1301,6880.535,94.666,503.388,501.412,0.0
53842.0,STARLINK-4754,PAYLOAD,2022-12-11 00:00:00,15.201225199999998,0.0001318,53.2176,212.5465,86.4254,197.5143,-0.056883,-0.0114806,0.0,0 STARLINK-4754,1 53842U 22114AA  22345.00001157 -.01148060  00000-0 -56883-1 0  9995,2 53842  53.2176 212.5465 0001318  86.4254 197.5143 15.20122520 13571,6883.608,94.729,506.38,504.565,0.0
53842.0,STARLINK-4754,PAYLOAD,2022-12-11 14:00:01,15.18698765,0.0001428,53.2174,209.8827,104.2081,132.2387,-0.059353,-0.0114907,0.0,0 STARLINK-4754,1 53842U 22114AA  22345.58334491 -.01149070  00000-0 -59353-1 0  9995,2 53842  53.2174 209.8827 0001428 104.2081 132.2387 15.18698765  1309,6887.909000000002,94.818,510.758,508.791,0.0
53842.0,STARLINK-4754,PAYLOAD,2022-12-11 22:00:01,15.17883698,0.0001382,53.2175,208.3662,92.2379,167.21599999999995,-0.060644,-0.01146804,0.0,0 STARLINK-4754,1 53842U 22114AA  22345.91668981 -.01146804  00000-0 -60644-1 0  9993,2 53842  53.2175 208.3662 0001382  92.2379 167.2160 15.17883698 13711,6890.375,94.869,513.192,511.288,0.0
53842.0,STARLINK-4754,PAYLOAD,2022-12-12 14:00:01,15.16255664,0.0001295,53.2175,205.3334,99.2832,203.064,-0.06348,-0.01145511,0.0,0 STARLINK-4754,1 53842U 22114AA  22346.58334491 -.01145511  00000-0 -63480-1 0  9998,2 53842  53.2175 205.3334 0001295  99.2832 203.0640 15.16255664  1307,6895.306,94.971,518.064,516.278,0.0
53842.0,STARLINK-4754,PAYLOAD,2022-12-12 22:00:00,15.15443243,0.0001273,53.2175,203.8227,79.6565,242.7,-0.06511,-0.01147733,0.0,0 STARLINK-4754,1 53842U 22114AA  22346.91667824 -.01147733  00000-0 -65110-1 0  9994,2 53842  53.2175 203.8227 0001273  79.6565 242.7000 15.15443243 13867,6897.77,95.022,520.513,518.757,0.0
53842.0,STARLINK-4754,PAYLOAD,2022-12-13 14:00:01,15.13813432,0.0001213,53.2175,200.8013,81.4676,277.9789,-0.0679169999999999,-0.01143368,0.0,0 STARLINK-4754,1 53842U 22114AA  22347.58334491 -.01143368  00000-0 -67917-1 0  9996,2 53842  53.2175 200.8013 0001213  81.4676 277.9789 15.13813432  1304,6902.72,95.124,525.423,523.748,0.0
53842.0,STARLINK-4754,PAYLOAD,2022-12-13 22:00:00,15.13002941,0.0001259,53.2174,199.2962,74.4425,302.0792,-0.069869,-0.01149143,0.0,0 STARLINK-4754,1 53842U 22114AA  22347.91667824 -.01149143  00000-0 -69869-1 0  9997,2 53842  53.2174 199.2962 0001259  74.4425 302.0792 15.13002941 14023,6905.185,95.175,527.919,526.181,0.0
53842.0,STARLINK-4754,PAYLOAD,2022-12-14 14:00:01,15.11378653,0.0001240999999999,53.2162,196.2857,76.7013,331.0408,-0.0733429999999999,-0.01152288,0.0,0 STARLINK-4754,1 53842U 22114AA  22348.58334491 -.01152288  00000-0 -73343-1 0  9998,2 53842  53.2162 196.2857 0001241  76.7013 331.0408 15.11378653  1306,6910.132,95.277,532.854,531.139,0.0
53842.0,STARLINK-4754,PAYLOAD,2022-12-14 22:00:00,15.10566977,0.0001309,53.2166,194.7862,94.5555,327.3292,-0.075372,-0.01157272,0.0,0 STARLINK-4754,1 53842U 22114AA  22348.91667824 -.01157272  00000-0 -75372-1 0  9996,2 53842  53.2166 194.7862 0001309  94.5555 327.3292 15.10566977  1309,6912.607,95.328,535.377,533.567,0.0
53842.0,STARLINK-4754,PAYLOAD,2022-12-15 02:00:01,15.10147556,0.0001284999999999,53.2172,194.0367,103.0524,145.5413,-0.074678,-0.01135177,0.0,0 STARLINK-4754,1 53842U 22114AA  22349.08334491 -.01135177  00000-0 -74678-1 0  9994,2 53842  53.2172 194.0367 0001285 103.0524 145.5413 15.10147556 14198,6913.887,95.355,536.64,534.863,0.0
53842.0,STARLINK-4754,PAYLOAD,2022-12-15 14:00:01,15.08924223,0.0001144,53.2174,191.7878,85.5754,1.7064,-0.0087507,-0.00137227,0.0,0 STARLINK-4754,1 53842U 22114AA  22349.58334491 -.00137227  00000-0 -87507-2 0  9992,2 53842  53.2174 191.7878 0001144  85.5754   1.7064 15.08924223  1309,6917.623000000001,95.432,540.279,538.697,0.0
53842.0,STARLINK-4754,PAYLOAD,2022-12-15 16:00:00,15.08839818,0.0001248,53.2175,191.4142,82.4361,97.7853,-0.00040688,-6.757e-05,0.0,0 STARLINK-4754,1 53842U 22114AA  22349.66667824 -.00006757  00000-0 -40688-3 0  9993,2 53842  53.2175 191.4142 0001248  82.4361  97.7853 15.08839818 14283,6917.880999999999,95.438,540.609,538.883,0.0
53842.0,STARLINK-4754,PAYLOAD,2022-12-15 22:00:00,15.08838428,0.0001434,53.2174,190.2932,75.1492,23.7656,-0.00020923,-3.616e-05,0.0,0 STARLINK-4754,1 53842U 22114AA  22349.91667824 -.00003616  00000-0 -20923-3 0  9992,2 53842  53.2174 190.2932 0001434  75.1492  23.7656 15.08838428  1302,6917.885,95.438,540.742,538.758,0.0
53842.0,STARLINK-4754,PAYLOAD,2022-12-16 14:00:01,15.08862909,0.0001365,53.2138,187.2937,86.2821,35.8434,-0.0045491,-0.00072008,0.0,0 STARLINK-4754,1 53842U 22114AA  22350.58334491 -.00072008  00000-0 -45491-2 0  9995,2 53842  53.2138 187.2937 0001365  86.2821  35.8434 15.08862909  1304,6917.81,95.436,540.62,538.731,0.0
53842.0,STARLINK-4754,PAYLOAD,2022-12-16 16:00:00,15.08858204,0.0001334,53.2138,186.9203,84.2941,130.7333,-0.0056725,-0.00089489,0.0,0 STARLINK-4754,1 53842U 22114AA  22350.66667824 -.00089489  00000-0 -56725-2 0  9996,2 53842  53.2138 186.9203 0001334  84.2941 130.7333 15.08858204 14437,6917.825,95.436,540.613,538.7669999999998,0.0
53842.0,STARLINK-4754,PAYLOAD,2022-12-16 22:00:00,15.08769121,0.0001315999999999,53.2138,185.7991,74.6984,59.0295,0.0036332,0.00057897,0.0,0 STARLINK-4754,1 53842U 22114AA  22350.91667824  .00057897  00000-0  36332-2 0  9992,2 53842  53.2138 185.7991 0001316  74.6984  59.0295 15.08769121  1309,6918.097,95.442,540.872,539.052,0.0
53842.0,STARLINK-4754,PAYLOAD,2022-12-17 06:00:00,15.08835247,0.0001293,53.2146,184.3022,79.3196,65.9368,-0.00096985,-0.00015688,0.0,0 STARLINK-4754,1 53842U 22114AA  22351.25001157 -.00015688  00000-0 -96985-3 0  9996,2 53842  53.2146 184.3022 0001293  79.3196  65.9368 15.08835247 14527,6917.895,95.438,540.654,538.865,0.0
53842.0,STARLINK-4754,PAYLOAD,2022-12-17 14:00:01,15.08837426,0.0001645,53.2161,182.8047,87.0011,69.9413,4.2112e-06,-2.21e-06,0.0,0 STARLINK-4754,1 53842U 22114AA  22351.58335648 -.00000221  00000-0  42112-5 0  9998,2 53842  53.2161 182.8047 0001645  87.0011  69.9413 15.08837426  1305,6917.888000000001,95.438,540.891,538.615,0.0
53842.0,STARLINK-4754,PAYLOAD,2022-12-17 22:00:00,15.08818545,0.0001668,53.216,181.3101,77.9032,90.5737,0.001809,0.00028603,0.0,0 STARLINK-4754,1 53842U 22114AA  22351.91667824  .00028603  00000-0  18090-2 0  9997,2 53842  53.2160 181.3101 0001668  77.9032  90.5737 15.08818545  1305,6917.946,95.439,540.965,538.6569999999998,0.0
53842.0,STARLINK-4754,PAYLOAD,2022-12-18 14:00:01,15.08849854,0.0001634,53.2163,178.3163,88.57,103.0772,-0.00034858,-5.833e-05,0.0,0 STARLINK-4754,1 53842U 22114AA  22352.58334491 -.00005833  00000-0 -34858-3 0  9995,2 53842  53.2163 178.3163 0001634  88.5700 103.0772 15.08849854  1301,6917.85,95.437,540.846,538.585,0.0
53842.0,STARLINK-4754,PAYLOAD,2022-12-18 22:00:00,15.08835441,0.00016,53.2176,176.8258,76.7139,126.5321,0.00015814,2.229e-05,0.0,0 STARLINK-4754,1 53842U 22114AA  22352.91667824  .00002229  00000-0  15814-3 0  9996,2 53842  53.2176 176.8258 0001600  76.7139 126.5321 15.08835441  1308,6917.894,95.438,540.866,538.6519999999998,0.0
53842.0,STARLINK-4754,PAYLOAD,2022-12-19 05:03:06,15.08837157,0.0001549,53.2163,175.5005,84.1095,276.0073,6.526e-05,7.51e-06,0.0,0 STARLINK-4754,1 53842U 22114AA  22353.21049754  .00000751  00000-0  65260-4 0  9995,2 53842  53.2163 175.5005 0001549  84.1095 276.0073 15.08837157 14828,6917.889,95.438,540.826,538.682,0.0
